{"fetched_at":"2026-03-29T16:36:15Z","count":15609,"tles":[{"name":"STARLINK-11537 [DTC]","line1":"1 62911U 25027E   26087.52257725  .00131495  00000+0  10102-2 0  9991","line2":"2 62911  42.9993 234.1818 0002214 273.8955  86.1659 15.70885441 66158","category":"Starlink"}]}